[{"CCSDS_OMM_VERS":"2.0","COMMENT":"GENERATED VIA SPACE-TRACK.ORG API","CREATION_DATE":"2013-04-10T16:29:02","ORIGINATOR":"18 SPCS","OBJECT_NAME":"GALILEO-FM3","OBJECT_ID":"2012-055A","CENTER_NAME":"EARTH","REF_FRAME":"TEME","TIME_SYSTEM":"UTC","MEAN_ELEMENT_THEORY":"SGP4","EPOCH":"2013-04-10T14:49:02.616095","MEAN_MOTION":"1.70473540","ECCENTRICITY":"0.00021080","INCLINATION":"55.2542","RA_OF_ASC_NODE":"234.5348","ARG_OF_PERICENTER":"209.7494","MEAN_ANOMALY":"150.1824","EPHEMERIS_TYPE":"0","CLASSIFICATION_TYPE":"U","NORAD_CAT_ID":"38857","ELEMENT_SET_NO":"999","REV_AT_EPOCH":"307","BSTAR":"0.00000000000000","MEAN_MOTION_DOT":"-0.00000037","MEAN_MOTION_DDOT":"0.0000000000000","SEMIMAJOR_AXIS":"29600.392","PERIOD":"844.705","APOAPSIS":"23228.496","PERIAPSIS":"23216.017","OBJECT_TYPE":"PAYLOAD","RCS_SIZE":"LARGE","COUNTRY_CODE":"ESA","LAUNCH_DATE":"2012-10-12","SITE":"FRGUI","DECAY_DATE":null,"FILE":"1468555","GP_ID":"92634514","TLE_LINE0":"0 GALILEO-FM3","TLE_LINE1":"1 38857U 12055A   13100.61739139 -.00000037  00000-0  00000+0 0  9998","TLE_LINE2":"2 38857 055.2542 234.5348 0002108 209.7494 150.1824 01.70473540  3073"},{"CCSDS_OMM_VERS":"2.0","COMMENT":"GENERATED VIA SPACE-TRACK.ORG API","CREATION_DATE":"2013-04-13T00:38:29","ORIGINATOR":"18 SPCS","OBJECT_NAME":"GALILEO-FM3","OBJECT_ID":"2012-055A","CENTER_NAME":"EARTH","REF_FRAME":"TEME","TIME_SYSTEM":"UTC","MEAN_ELEMENT_THEORY":"SGP4","EPOCH":"2013-04-12T23:07:48.232416","MEAN_MOTION":"1.70473458","ECCENTRICITY":"0.00021620","INCLINATION":"55.2531","RA_OF_ASC_NODE":"234.4696","ARG_OF_PERICENTER":"211.7207","MEAN_ANOMALY":"148.2246","EPHEMERIS_TYPE":"0","CLASSIFICATION_TYPE":"U","NORAD_CAT_ID":"38857","ELEMENT_SET_NO":"999","REV_AT_EPOCH":"311","BSTAR":"0.00000000000000","MEAN_MOTION_DOT":"-0.00000026","MEAN_MOTION_DDOT":"0.0000000000000","SEMIMAJOR_AXIS":"29600.401","PERIOD":"844.706","APOAPSIS":"23228.666","PERIAPSIS":"23215.867","OBJECT_TYPE":"PAYLOAD","RCS_SIZE":"LARGE","COUNTRY_CODE":"ESA","LAUNCH_DATE":"2012-10-12","SITE":"FRGUI","DECAY_DATE":null,"FILE":"1469737","GP_ID":"92653356","TLE_LINE0":"0 GALILEO-FM3","TLE_LINE1":"1 38857U 12055A   13102.96375269 -.00000026  00000-0  00000+0 0  9996","TLE_LINE2":"2 38857 055.2531 234.4696 0002162 211.7207 148.2246 01.70473458  3110"},{"CCSDS_OMM_VERS":"2.0","COMMENT":"GENERATED VIA SPACE-TRACK.ORG API","CREATION_DATE":"2013-04-15T08:29:16","ORIGINATOR":"18 SPCS","OBJECT_NAME":"GALILEO-FM3","OBJECT_ID":"2012-055A","CENTER_NAME":"EARTH","REF_FRAME":"TEME","TIME_SYSTEM":"UTC","MEAN_ELEMENT_THEORY":"SGP4","EPOCH":"2013-04-15T07:26:33.643968","MEAN_MOTION":"1.70473352","ECCENTRICITY":"0.00022240","INCLINATION":"55.2518","RA_OF_ASC_NODE":"234.4044","ARG_OF_PERICENTER":"214.3103","MEAN_ANOMALY":"145.6473","EPHEMERIS_TYPE":"0","CLASSIFICATION_TYPE":"U","NORAD_CAT_ID":"38857","ELEMENT_SET_NO":"999","REV_AT_EPOCH":"315","BSTAR":"0.00000000000000","MEAN_MOTION_DOT":"-0.00000018","MEAN_MOTION_DDOT":"0.0000000000000","SEMIMAJOR_AXIS":"29600.413","PERIOD":"844.706","APOAPSIS":"23228.862","PERIAPSIS":"23215.695","OBJECT_TYPE":"PAYLOAD","RCS_SIZE":"LARGE","COUNTRY_CODE":"ESA","LAUNCH_DATE":"2012-10-12","SITE":"FRGUI","DECAY_DATE":null,"FILE":"1471007","GP_ID":"92672750","TLE_LINE0":"0 GALILEO-FM3","TLE_LINE1":"1 38857U 12055A   13105.31011162 -.00000018  00000-0  00000+0 0  9998","TLE_LINE2":"2 38857 055.2518 234.4044 0002224 214.3103 145.6473 01.70473352  3155"},{"CCSDS_OMM_VERS":"2.0","COMMENT":"GENERATED VIA SPACE-TRACK.ORG API","CREATION_DATE":"2013-04-18T00:30:34","ORIGINATOR":"18 SPCS","OBJECT_NAME":"GALILEO-FM3","OBJECT_ID":"2012-055A","CENTER_NAME":"EARTH","REF_FRAME":"TEME","TIME_SYSTEM":"UTC","MEAN_ELEMENT_THEORY":"SGP4","EPOCH":"2013-04-17T15:45:18.124127","MEAN_MOTION":"1.70473272","ECCENTRICITY":"0.00022860","INCLINATION":"55.2503","RA_OF_ASC_NODE":"234.3391","ARG_OF_PERICENTER":"216.2218","MEAN_ANOMALY":"143.7401","EPHEMERIS_TYPE":"0","CLASSIFICATION_TYPE":"U","NORAD_CAT_ID":"38857","ELEMENT_SET_NO":"999","REV_AT_EPOCH":"319","BSTAR":"0.00000000000000","MEAN_MOTION_DOT":"-0.00000015","MEAN_MOTION_DDOT":"0.0000000000000","SEMIMAJOR_AXIS":"29600.423","PERIOD":"844.707","APOAPSIS":"23229.054","PERIAPSIS":"23215.521","OBJECT_TYPE":"PAYLOAD","RCS_SIZE":"LARGE","COUNTRY_CODE":"ESA","LAUNCH_DATE":"2012-10-12","SITE":"FRGUI","DECAY_DATE":null,"FILE":"1472324","GP_ID":"92693320","TLE_LINE0":"0 GALILEO-FM3","TLE_LINE1":"1 38857U 12055A   13107.65645977 -.00000015  00000-0  00000+0 0  9991","TLE_LINE2":"2 38857 055.2503 234.3391 0002286 216.2218 143.7401 01.70473272  3194"},{"CCSDS_OMM_VERS":"2.0","COMMENT":"GENERATED VIA SPACE-TRACK.ORG API","CREATION_DATE":"2013-04-20T00:27:12","ORIGINATOR":"18 SPCS","OBJECT_NAME":"GALILEO-FM3","OBJECT_ID":"2012-055A","CENTER_NAME":"EARTH","REF_FRAME":"TEME","TIME_SYSTEM":"UTC","MEAN_ELEMENT_THEORY":"SGP4","EPOCH":"2013-04-20T00:04:01.647839","MEAN_MOTION":"1.70473222","ECCENTRICITY":"0.00023550","INCLINATION":"55.2490","RA_OF_ASC_NODE":"234.2736","ARG_OF_PERICENTER":"216.9136","MEAN_ANOMALY":"143.0450","EPHEMERIS_TYPE":"0","CLASSIFICATION_TYPE":"U","NORAD_CAT_ID":"38857","ELEMENT_SET_NO":"999","REV_AT_EPOCH":"323","BSTAR":"0.00000000000000","MEAN_MOTION_DOT":"-0.00000016","MEAN_MOTION_DDOT":"0.0000000000000","SEMIMAJOR_AXIS":"29600.429","PERIOD":"844.707","APOAPSIS":"23229.264","PERIAPSIS":"23215.323","OBJECT_TYPE":"PAYLOAD","RCS_SIZE":"LARGE","COUNTRY_CODE":"ESA","LAUNCH_DATE":"2012-10-12","SITE":"FRGUI","DECAY_DATE":null,"FILE":"1473203","GP_ID":"92705279","TLE_LINE0":"0 GALILEO-FM3","TLE_LINE1":"1 38857U 12055A   13110.00279685 -.00000016  00000-0  00000+0 0  9994","TLE_LINE2":"2 38857 055.2490 234.2736 0002355 216.9136 143.0450 01.70473222  3231"},{"CCSDS_OMM_VERS":"2.0","COMMENT":"GENERATED VIA SPACE-TRACK.ORG API","CREATION_DATE":"2013-04-22T08:29:14","ORIGINATOR":"18 SPCS","OBJECT_NAME":"GALILEO-FM3","OBJECT_ID":"2012-055A","CENTER_NAME":"EARTH","REF_FRAME":"TEME","TIME_SYSTEM":"UTC","MEAN_ELEMENT_THEORY":"SGP4","EPOCH":"2013-04-22T08:22:45.186240","MEAN_MOTION":"1.70473206","ECCENTRICITY":"0.00024440","INCLINATION":"55.2477","RA_OF_ASC_NODE":"234.2080","ARG_OF_PERICENTER":"217.3177","MEAN_ANOMALY":"142.6363","EPHEMERIS_TYPE":"0","CLASSIFICATION_TYPE":"U","NORAD_CAT_ID":"38857","ELEMENT_SET_NO":"999","REV_AT_EPOCH":"327","BSTAR":"0.00000000000000","MEAN_MOTION_DOT":"-0.00000019","MEAN_MOTION_DDOT":"0.0000000000000","SEMIMAJOR_AXIS":"29600.430","PERIOD":"844.707","APOAPSIS":"23229.530","PERIAPSIS":"23215.061","OBJECT_TYPE":"PAYLOAD","RCS_SIZE":"LARGE","COUNTRY_CODE":"ESA","LAUNCH_DATE":"2012-10-12","SITE":"FRGUI","DECAY_DATE":null,"FILE":"1474325","GP_ID":"92721556","TLE_LINE0":"0 GALILEO-FM3","TLE_LINE1":"1 38857U 12055A   13112.34913410 -.00000019  00000-0  00000+0 0  9997","TLE_LINE2":"2 38857 055.2477 234.2080 0002444 217.3177 142.6363 01.70473206  3271"},{"CCSDS_OMM_VERS":"2.0","COMMENT":"GENERATED VIA SPACE-TRACK.ORG API","CREATION_DATE":"2013-04-25T00:34:20","ORIGINATOR":"18 SPCS","OBJECT_NAME":"GALILEO-FM3","OBJECT_ID":"2012-055A","CENTER_NAME":"EARTH","REF_FRAME":"TEME","TIME_SYSTEM":"UTC","MEAN_ELEMENT_THEORY":"SGP4","EPOCH":"2013-04-24T16:41:30.156288","MEAN_MOTION":"1.70473280","ECCENTRICITY":"0.00025680","INCLINATION":"55.2463","RA_OF_ASC_NODE":"234.1426","ARG_OF_PERICENTER":"217.7889","MEAN_ANOMALY":"142.1686","EPHEMERIS_TYPE":"0","CLASSIFICATION_TYPE":"U","NORAD_CAT_ID":"38857","ELEMENT_SET_NO":"999","REV_AT_EPOCH":"331","BSTAR":"0.00000000000000","MEAN_MOTION_DOT":"-0.00000018","MEAN_MOTION_DDOT":"0.0000000000000","SEMIMAJOR_AXIS":"29600.422","PERIOD":"844.707","APOAPSIS":"23229.888","PERIAPSIS":"23214.685","OBJECT_TYPE":"PAYLOAD","RCS_SIZE":"LARGE","COUNTRY_CODE":"ESA","LAUNCH_DATE":"2012-10-12","SITE":"FRGUI","DECAY_DATE":null,"FILE":"1474635","GP_ID":"92726930","TLE_LINE0":"0 GALILEO-FM3","TLE_LINE1":"1 38857U 12055A   13114.69548792 -.00000018  00000-0  00000+0 0  9993","TLE_LINE2":"2 38857 055.2463 234.1426 0002568 217.7889 142.1686 01.70473280  3310"},{"CCSDS_OMM_VERS":"2.0","COMMENT":"GENERATED VIA SPACE-TRACK.ORG API","CREATION_DATE":"2013-04-27T00:31:25","ORIGINATOR":"18 SPCS","OBJECT_NAME":"GALILEO-FM3","OBJECT_ID":"2012-055A","CENTER_NAME":"EARTH","REF_FRAME":"TEME","TIME_SYSTEM":"UTC","MEAN_ELEMENT_THEORY":"SGP4","EPOCH":"2013-04-27T01:00:16.507872","MEAN_MOTION":"1.70473367","ECCENTRICITY":"0.00026570","INCLINATION":"55.2449","RA_OF_ASC_NODE":"234.0773","ARG_OF_PERICENTER":"217.8796","MEAN_ANOMALY":"142.0911","EPHEMERIS_TYPE":"0","CLASSIFICATION_TYPE":"U","NORAD_CAT_ID":"38857","ELEMENT_SET_NO":"999","REV_AT_EPOCH":"335","BSTAR":"0.00000000000000","MEAN_MOTION_DOT":"-0.00000013","MEAN_MOTION_DDOT":"0.0000000000000","SEMIMAJOR_AXIS":"29600.412","PERIOD":"844.706","APOAPSIS":"23230.142","PERIAPSIS":"23214.412","OBJECT_TYPE":"PAYLOAD","RCS_SIZE":"LARGE","COUNTRY_CODE":"ESA","LAUNCH_DATE":"2012-10-12","SITE":"FRGUI","DECAY_DATE":null,"FILE":"1475693","GP_ID":"92742079","TLE_LINE0":"0 GALILEO-FM3","TLE_LINE1":"1 38857U 12055A   13117.04185773 -.00000013  00000-0  00000+0 0  9996","TLE_LINE2":"2 38857 055.2449 234.0773 0002657 217.8796 142.0911 01.70473367  3355"}]